[{"OBJECT_NAME":"SPIP","OBJECT_ID":"2023-174AU","EPOCH":"2026-03-09T22:52:46.383168","MEAN_MOTION":15.26695413,"ECCENTRICITY":0.00100427,"INCLINATION":97.3901,"RA_OF_ASC_NODE":146.4534,"ARG_OF_PERICENTER":168.1112,"MEAN_ANOMALY":192.0366,"EPHEMERIS_TYPE":0,"CLASSIFICATION_TYPE":"U","NORAD_CAT_ID":58298,"ELEMENT_SET_NO":999,"REV_AT_EPOCH":12963,"BSTAR":0.00025731582,"MEAN_MOTION_DOT":6.692e-5,"MEAN_MOTION_DDOT":0},{"OBJECT_NAME":"STARLINK-31564","OBJECT_ID":"2024-073R","EPOCH":"2026-03-09T01:35:05.423136","MEAN_MOTION":15.27593113,"ECCENTRICITY":7.568e-5,"INCLINATION":43.0026,"RA_OF_ASC_NODE":321.25,"ARG_OF_PERICENTER":267.9298,"MEAN_ANOMALY":92.1467,"EPHEMERIS_TYPE":0,"CLASSIFICATION_TYPE":"U","NORAD_CAT_ID":59526,"ELEMENT_SET_NO":999,"REV_AT_EPOCH":10608,"BSTAR":5.9569374e-5,"MEAN_MOTION_DOT":1.378e-5,"MEAN_MOTION_DDOT":0}]
